RSP-03                  
1 65732U 98067XL  26039.53764128  .00813723  33108-3  13534-2 0  9999
2 65732  51.6148 196.8535 0007218 299.0895  60.9393 16.02353449 22301
YOTSUBA-KULOVER         
1 65941U 98067XN  26039.52209964  .00113213  00000+0  88222-3 0  9997
2 65941  51.6241 207.3788 0004035 254.3372 105.7180 15.70844847 18907
BOTAN                   
1 65942U 98067XP  26039.46178240  .00342562  00000+0  14175-2 0  9999
2 65942  51.6179 203.9271 0006222 277.7015  82.3282 15.84336701 18947
E-KAGAKU-1              
1 65943U 98067XQ  26039.45926579  .00132020  00000+0  10308-2 0  9995
2 65943  51.6264 207.7212 0003404 271.2805  88.7802 15.70729024 18896
HRC MONOBLOCK CAMERA    
1 66052U 98067XR  26039.50057693  .00049832  00000+0  62602-3 0  9998
2 66052  51.6273 212.4988 0000994 356.9708   3.1279 15.59189079 17834
HTV-X1                  
1 66174U 25241A   26039.59996981  .00008889  00000+0  17211-3 0  9991
2 66174  51.6313 216.1577 0011035  77.5493 282.6729 15.48484385   511
SZ-21 MODULE            
1 66515U 25246C   26039.31779128  .00036164  00000+0  34090-3 0  9998
2 66515  41.4766  23.8541 0002849 283.8241  76.2283 15.66324855 13464
SHENZHOU-22             
1 66645U 25272A   26039.26676819  .00021315  00000+0  26604-3 0  9992
2 66645  41.4686  27.0109 0004988  28.6322 331.4790 15.59347217267645
SOYUZ-MS 28             
1 66664U 25275A   26039.59996981  .00008889  00000+0  17211-3 0  9992
2 66664  51.6313 216.1577 0011035  77.5493 282.6729 15.48484385  1280
DUPLEX                  
1 66906U 98067XS  26039.47700515  .00035425  00000+0  53912-3 0  9997
2 66906  51.6286 215.3396 0001413  79.2821 280.8329 15.54172600 10581
ISS OBJECT XT           
1 66907U 98067XT  26039.46607952  .00112386  00000+0  12718-2 0  9998
2 66907  51.6269 213.7658 0001846 227.7728 132.3109 15.61568358 10609
ISS OBJECT XU           
1 66908U 98067XU  26039.46550497  .00110500  00000+0  12496-2 0  9999
2 66908  51.6261 213.7594 0001592 234.5732 125.5114 15.61594991 10602
